DUCHIFAT-1              
1 40021U 14033M   23116.70675078  .00007904  00000+0  68769-3 0  9999
2 40021  98.0539  79.0542 0013630  86.7210 273.5570 14.97164149481487
NANOSATC-BR1            
1 40024U 14033Q   23116.60452355  .00005838  00000+0  53470-3 0  9999
2 40024  98.0236  70.4770 0012770  93.4296 266.8385 14.95274777480705
QB50P1                  
1 40025U 14033R   23117.08816855  .00004371  00000+0  42108-3 0  9999
2 40025  97.9934  62.9670 0013106 101.1106 259.1587 14.93415069481029
QB50P2                  
1 40032U 14033Y   23116.31165652  .00004767  00000+0  46810-3 0  9997
2 40032  97.9644  56.2332 0012802 102.1343 258.1311 14.92604397480231
PERSEUS-M2              
1 40037U 14033AD  23117.04398809  .00001703  00000+0  19026-3 0  9991
2 40037  97.9068  42.8300 0015172 124.8874 235.3771 14.88227910480240
PERSEUS-M1              
1 40039U 14033AF  23117.05320597  .00002249  00000+0  25146-3 0  9999
2 40039  97.8932  39.9589 0015048 124.2680 235.9964 14.87872416480121
POLYITAN-1              
1 40042U 14033AJ  23117.11649435  .00006345  00000+0  59784-3 0  9991
2 40042  98.0042  64.7435 0014971  94.4790 265.8140 14.94099709480920
TIGRISAT                
1 40043U 14033AK  23116.74458832  .00002329  00000+0  33449-3 0  9997
2 40043  97.6638 294.3944 0057136 219.5331 140.1706 14.76268158475826
AEROCUBE 6A             
1 40045U 14033AM  23116.79731968  .00004593  00000+0  62312-3 0  9994
2 40045  97.6591 304.0394 0054672 204.4540 155.4078 14.78304916476031
AEROCUBE 6B             
1 40046U 14033AN  23116.78958142  .00004585  00000+0  61178-3 0  9999
2 40046  97.6528 302.4747 0053364 201.7273 158.1675 14.79058945476050
UKUBE-1                 
1 40074U 14037F   23117.21541949  .00003995  00000+0  44336-3 0  9997
2 40074  98.3473  19.0372 0004392  13.5385 346.5621 14.87854307476670
BRITE-PL2 (HEWELIUSZ)   
1 40119U 14049B   23116.34395269  .00002714  00000+0  31342-3 0  9996
2 40119  97.8773 213.9092 0015439 299.6429  60.3249 14.86366596470466
EXACTVIEW 9             
1 40936U 15052G   23114.14294527  .00007867  00000+0  96656-3 0  9992
2 40936   6.0024 114.6296 0010852 242.2712 117.6315 14.78350801409241
