[{"OBJECT_NAME":"DUCHIFAT-1","OBJECT_ID":"2014-033M","EPOCH":"2023-04-26T16:57:43.267392","MEAN_MOTION":14.97164149,"ECCENTRICITY":0.001363,"INCLINATION":98.0539,"RA_OF_ASC_NODE":79.0542,"ARG_OF_PERICENTER":86.721,"MEAN_ANOMALY":273.557,"EPHEMERIS_TYPE":0,"CLASSIFICATION_TYPE":"U","NORAD_CAT_ID":40021,"ELEMENT_SET_NO":999,"REV_AT_EPOCH":48148,"BSTAR":0.00068769,"MEAN_MOTION_DOT":7.904e-5,"MEAN_MOTION_DDOT":0},{"OBJECT_NAME":"NANOSATC-BR1","OBJECT_ID":"2014-033Q","EPOCH":"2023-04-26T14:30:30.834720","MEAN_MOTION":14.95274777,"ECCENTRICITY":0.001277,"INCLINATION":98.0236,"RA_OF_ASC_NODE":70.477,"ARG_OF_PERICENTER":93.4296,"MEAN_ANOMALY":266.8385,"EPHEMERIS_TYPE":0,"CLASSIFICATION_TYPE":"U","NORAD_CAT_ID":40024,"ELEMENT_SET_NO":999,"REV_AT_EPOCH":48070,"BSTAR":0.0005347,"MEAN_MOTION_DOT":5.838e-5,"MEAN_MOTION_DDOT":0},{"OBJECT_NAME":"QB50P1","OBJECT_ID":"2014-033R","EPOCH":"2023-04-27T02:06:57.762720","MEAN_MOTION":14.93415069,"ECCENTRICITY":0.0013106,"INCLINATION":97.9934,"RA_OF_ASC_NODE":62.967,"ARG_OF_PERICENTER":101.1106,"MEAN_ANOMALY":259.1587,"EPHEMERIS_TYPE":0,"CLASSIFICATION_TYPE":"U","NORAD_CAT_ID":40025,"ELEMENT_SET_NO":999,"REV_AT_EPOCH":48102,"BSTAR":0.00042108,"MEAN_MOTION_DOT":4.371e-5,"MEAN_MOTION_DDOT":0},{"OBJECT_NAME":"QB50P2","OBJECT_ID":"2014-033Y","EPOCH":"2023-04-26T07:28:47.123328","MEAN_MOTION":14.92604397,"ECCENTRICITY":0.0012802,"INCLINATION":97.9644,"RA_OF_ASC_NODE":56.2332,"ARG_OF_PERICENTER":102.1343,"MEAN_ANOMALY":258.1311,"EPHEMERIS_TYPE":0,"CLASSIFICATION_TYPE":"U","NORAD_CAT_ID":40032,"ELEMENT_SET_NO":999,"REV_AT_EPOCH":48023,"BSTAR":0.0004681,"MEAN_MOTION_DOT":4.767e-5,"MEAN_MOTION_DDOT":0},{"OBJECT_NAME":"PERSEUS-M2","OBJECT_ID":"2014-033AD","EPOCH":"2023-04-27T01:03:20.570976","MEAN_MOTION":14.8822791,"ECCENTRICITY":0.0015172,"INCLINATION":97.9068,"RA_OF_ASC_NODE":42.83,"ARG_OF_PERICENTER":124.8874,"MEAN_ANOMALY":235.3771,"EPHEMERIS_TYPE":0,"CLASSIFICATION_TYPE":"U","NORAD_CAT_ID":40037,"ELEMENT_SET_NO":999,"REV_AT_EPOCH":48024,"BSTAR":0.00019026,"MEAN_MOTION_DOT":1.703e-5,"MEAN_MOTION_DDOT":0},{"OBJECT_NAME":"PERSEUS-M1","OBJECT_ID":"2014-033AF","EPOCH":"2023-04-27T01:16:36.995808","MEAN_MOTION":14.87872416,"ECCENTRICITY":0.0015048,"INCLINATION":97.8932,"RA_OF_ASC_NODE":39.9589,"ARG_OF_PERICENTER":124.268,"MEAN_ANOMALY":235.9964,"EPHEMERIS_TYPE":0,"CLASSIFICATION_TYPE":"U","NORAD_CAT_ID":40039,"ELEMENT_SET_NO":999,"REV_AT_EPOCH":48012,"BSTAR":0.00025146,"MEAN_MOTION_DOT":2.249e-5,"MEAN_MOTION_DDOT":0},{"OBJECT_NAME":"POLYITAN-1","OBJECT_ID":"2014-033AJ","EPOCH":"2023-04-27T02:47:45.111840","MEAN_MOTION":14.94099709,"ECCENTRICITY":0.0014971,"INCLINATION":98.0042,"RA_OF_ASC_NODE":64.7435,"ARG_OF_PERICENTER":94.479,"MEAN_ANOMALY":265.814,"EPHEMERIS_TYPE":0,"CLASSIFICATION_TYPE":"U","NORAD_CAT_ID":40042,"ELEMENT_SET_NO":999,"REV_AT_EPOCH":48092,"BSTAR":0.00059784,"MEAN_MOTION_DOT":6.345e-5,"MEAN_MOTION_DDOT":0},{"OBJECT_NAME":"TIGRISAT","OBJECT_ID":"2014-033AK","EPOCH":"2023-04-26T17:52:12.430848","MEAN_MOTION":14.76268158,"ECCENTRICITY":0.0057136,"INCLINATION":97.6638,"RA_OF_ASC_NODE":294.3944,"ARG_OF_PERICENTER":219.5331,"MEAN_ANOMALY":140.1706,"EPHEMERIS_TYPE":0,"CLASSIFICATION_TYPE":"U","NORAD_CAT_ID":40043,"ELEMENT_SET_NO":999,"REV_AT_EPOCH":47582,"BSTAR":0.00033449,"MEAN_MOTION_DOT":2.329e-5,"MEAN_MOTION_DDOT":0},{"OBJECT_NAME":"AEROCUBE 6A","OBJECT_ID":"2014-033AM","EPOCH":"2023-04-26T19:08:08.420352","MEAN_MOTION":14.78304916,"ECCENTRICITY":0.0054672,"INCLINATION":97.6591,"RA_OF_ASC_NODE":304.0394,"ARG_OF_PERICENTER":204.454,"MEAN_ANOMALY":155.4078,"EPHEMERIS_TYPE":0,"CLASSIFICATION_TYPE":"U","NORAD_CAT_ID":40045,"ELEMENT_SET_NO":999,"REV_AT_EPOCH":47603,"BSTAR":0.00062312,"MEAN_MOTION_DOT":4.593e-5,"MEAN_MOTION_DDOT":0},{"OBJECT_NAME":"AEROCUBE 6B","OBJECT_ID":"2014-033AN","EPOCH":"2023-04-26T18:56:59.834688","MEAN_MOTION":14.79058945,"ECCENTRICITY":0.0053364,"INCLINATION":97.6528,"RA_OF_ASC_NODE":302.4747,"ARG_OF_PERICENTER":201.7273,"MEAN_ANOMALY":158.1675,"EPHEMERIS_TYPE":0,"CLASSIFICATION_TYPE":"U","NORAD_CAT_ID":40046,"ELEMENT_SET_NO":999,"REV_AT_EPOCH":47605,"BSTAR":0.00061178,"MEAN_MOTION_DOT":4.585e-5,"MEAN_MOTION_DDOT":0},{"OBJECT_NAME":"UKUBE-1","OBJECT_ID":"2014-037F","EPOCH":"2023-04-27T05:10:12.243936","MEAN_MOTION":14.87854307,"ECCENTRICITY":0.0004392,"INCLINATION":98.3473,"RA_OF_ASC_NODE":19.0372,"ARG_OF_PERICENTER":13.5385,"MEAN_ANOMALY":346.5621,"EPHEMERIS_TYPE":0,"CLASSIFICATION_TYPE":"U","NORAD_CAT_ID":40074,"ELEMENT_SET_NO":999,"REV_AT_EPOCH":47667,"BSTAR":0.00044336,"MEAN_MOTION_DOT":3.995e-5,"MEAN_MOTION_DDOT":0},{"OBJECT_NAME":"BRITE-PL2 (HEWELIUSZ)","OBJECT_ID":"2014-049B","EPOCH":"2023-04-26T08:15:17.512416","MEAN_MOTION":14.86366596,"ECCENTRICITY":0.0015439,"INCLINATION":97.8773,"RA_OF_ASC_NODE":213.9092,"ARG_OF_PERICENTER":299.6429,"MEAN_ANOMALY":60.3249,"EPHEMERIS_TYPE":0,"CLASSIFICATION_TYPE":"U","NORAD_CAT_ID":40119,"ELEMENT_SET_NO":999,"REV_AT_EPOCH":47046,"BSTAR":0.00031342,"MEAN_MOTION_DOT":2.714e-5,"MEAN_MOTION_DDOT":0},{"OBJECT_NAME":"EXACTVIEW 9","OBJECT_ID":"2015-052G","EPOCH":"2023-04-24T03:25:50.471328","MEAN_MOTION":14.78350801,"ECCENTRICITY":0.0010852,"INCLINATION":6.0024,"RA_OF_ASC_NODE":114.6296,"ARG_OF_PERICENTER":242.2712,"MEAN_ANOMALY":117.6315,"EPHEMERIS_TYPE":0,"CLASSIFICATION_TYPE":"U","NORAD_CAT_ID":40936,"ELEMENT_SET_NO":999,"REV_AT_EPOCH":40924,"BSTAR":0.00096656,"MEAN_MOTION_DOT":7.867e-5,"MEAN_MOTION_DDOT":0}]
